[{"OBJECT_NAME":"ONEWEB-0323","OBJECT_ID":"2021-075AH","EPOCH":"2025-09-06T03:12:14.834592","MEAN_MOTION":13.12442234,"ECCENTRICITY":0.00023721,"INCLINATION":87.8888,"RA_OF_ASC_NODE":47.0841,"ARG_OF_PERICENTER":99.914,"MEAN_ANOMALY":260.2257,"EPHEMERIS_TYPE":0,"CLASSIFICATION_TYPE":"U","NORAD_CAT_ID":49106,"ELEMENT_SET_NO":999,"REV_AT_EPOCH":19729,"BSTAR":0.00081832442,"MEAN_MOTION_DOT":3.07e-6,"MEAN_MOTION_DDOT":0},{"OBJECT_NAME":"ONEWEB-0329","OBJECT_ID":"2021-075AJ","EPOCH":"2025-09-06T04:20:00.223296","MEAN_MOTION":13.17651018,"ECCENTRICITY":0.00019121,"INCLINATION":87.9029,"RA_OF_ASC_NODE":62.3815,"ARG_OF_PERICENTER":95.3064,"MEAN_ANOMALY":264.8286,"EPHEMERIS_TYPE":0,"CLASSIFICATION_TYPE":"U","NORAD_CAT_ID":49107,"ELEMENT_SET_NO":999,"REV_AT_EPOCH":19618,"BSTAR":0.00017549378,"MEAN_MOTION_DOT":8.1e-7,"MEAN_MOTION_DDOT":0},{"OBJECT_NAME":"ONEWEB-0330","OBJECT_ID":"2021-075AK","EPOCH":"2025-09-06T04:21:12.959136","MEAN_MOTION":13.17648813,"ECCENTRICITY":0.00016975,"INCLINATION":87.9032,"RA_OF_ASC_NODE":62.3848,"ARG_OF_PERICENTER":99.3858,"MEAN_ANOMALY":260.7465,"EPHEMERIS_TYPE":0,"CLASSIFICATION_TYPE":"U","NORAD_CAT_ID":49108,"ELEMENT_SET_NO":999,"REV_AT_EPOCH":19622,"BSTAR":0.0001740468,"MEAN_MOTION_DOT":8.0e-7,"MEAN_MOTION_DDOT":0},{"OBJECT_NAME":"ONEWEB-0292","OBJECT_ID":"2021-083A","EPOCH":"2025-09-06T06:02:23.685792","MEAN_MOTION":13.13471464,"ECCENTRICITY":0.00019113,"INCLINATION":87.9021,"RA_OF_ASC_NODE":16.671,"ARG_OF_PERICENTER":97.9733,"MEAN_ANOMALY":262.1613,"EPHEMERIS_TYPE":0,"CLASSIFICATION_TYPE":"U","NORAD_CAT_ID":49186,"ELEMENT_SET_NO":999,"REV_AT_EPOCH":19365,"BSTAR":0.00032139801,"MEAN_MOTION_DOT":1.3e-6,"MEAN_MOTION_DDOT":0},{"OBJECT_NAME":"ONEWEB-0303","OBJECT_ID":"2021-083B","EPOCH":"2025-09-06T07:09:31.258944","MEAN_MOTION":13.18686934,"ECCENTRICITY":0.00019021,"INCLINATION":87.9177,"RA_OF_ASC_NODE":31.828,"ARG_OF_PERICENTER":95.8103,"MEAN_ANOMALY":264.3246,"EPHEMERIS_TYPE":0,"CLASSIFICATION_TYPE":"U","NORAD_CAT_ID":49187,"ELEMENT_SET_NO":999,"REV_AT_EPOCH":19256,"BSTAR":9.8368093e-5,"MEAN_MOTION_DOT":5.2e-7,"MEAN_MOTION_DDOT":0},{"OBJECT_NAME":"ONEWEB-0306","OBJECT_ID":"2021-083C","EPOCH":"2025-09-06T03:16:44.778432","MEAN_MOTION":13.18686958,"ECCENTRICITY":0.00015215,"INCLINATION":87.9177,"RA_OF_ASC_NODE":31.8459,"ARG_OF_PERICENTER":96.3647,"MEAN_ANOMALY":263.7659,"EPHEMERIS_TYPE":0,"CLASSIFICATION_TYPE":"U","NORAD_CAT_ID":49188,"ELEMENT_SET_NO":999,"REV_AT_EPOCH":19258,"BSTAR":9.839862e-6,"MEAN_MOTION_DOT":1.7e-7,"MEAN_MOTION_DDOT":0},{"OBJECT_NAME":"ONEWEB-0307","OBJECT_ID":"2021-083D","EPOCH":"2025-09-05T20:45:21.546144","MEAN_MOTION":13.13469041,"ECCENTRICITY":0.00015357,"INCLINATION":87.9009,"RA_OF_ASC_NODE":16.7459,"ARG_OF_PERICENTER":107.0369,"MEAN_ANOMALY":253.0928,"EPHEMERIS_TYPE":0,"CLASSIFICATION_TYPE":"U","NORAD_CAT_ID":49189,"ELEMENT_SET_NO":999,"REV_AT_EPOCH":19360,"BSTAR":-0.00028583663,"MEAN_MOTION_DOT":-9.2e-7,"MEAN_MOTION_DDOT":0},{"OBJECT_NAME":"ONEWEB-0320","OBJECT_ID":"2021-083E","EPOCH":"2025-09-06T07:04:45.586848","MEAN_MOTION":13.1868493,"ECCENTRICITY":0.00017429,"INCLINATION":87.9177,"RA_OF_ASC_NODE":31.8426,"ARG_OF_PERICENTER":96.2524,"MEAN_ANOMALY":263.8807,"EPHEMERIS_TYPE":0,"CLASSIFICATION_TYPE":"U","NORAD_CAT_ID":49190,"ELEMENT_SET_NO":999,"REV_AT_EPOCH":19256,"BSTAR":0.00018380544,"MEAN_MOTION_DOT":8.5e-7,"MEAN_MOTION_DDOT":0},{"OBJECT_NAME":"ONEWEB-0321","OBJECT_ID":"2021-083F","EPOCH":"2025-09-06T06:20:50.958816","MEAN_MOTION":13.20771369,"ECCENTRICITY":0.00015657,"INCLINATION":87.9281,"RA_OF_ASC_NODE":331.031,"ARG_OF_PERICENTER":100.6727,"MEAN_ANOMALY":259.4583,"EPHEMERIS_TYPE":0,"CLASSIFICATION_TYPE":"U","NORAD_CAT_ID":49191,"ELEMENT_SET_NO":999,"REV_AT_EPOCH":19935,"BSTAR":0.00034130246,"MEAN_MOTION_DOT":1.52e-6,"MEAN_MOTION_DDOT":0},{"OBJECT_NAME":"ONEWEB-0322","OBJECT_ID":"2021-083G","EPOCH":"2025-09-05T20:39:17.368416","MEAN_MOTION":13.13472232,"ECCENTRICITY":0.00013536,"INCLINATION":87.9021,"RA_OF_ASC_NODE":16.7425,"ARG_OF_PERICENTER":98.943,"MEAN_ANOMALY":261.1852,"EPHEMERIS_TYPE":0,"CLASSIFICATION_TYPE":"U","NORAD_CAT_ID":49192,"ELEMENT_SET_NO":999,"REV_AT_EPOCH":19359,"BSTAR":-0.00065201577,"MEAN_MOTION_DOT":-2.25e-6,"MEAN_MOTION_DDOT":0},{"OBJECT_NAME":"ONEWEB-0324","OBJECT_ID":"2021-083H","EPOCH":"2025-09-06T03:07:14.113344","MEAN_MOTION":13.18685046,"ECCENTRICITY":0.00017384,"INCLINATION":87.9177,"RA_OF_ASC_NODE":31.855,"ARG_OF_PERICENTER":100.8684,"MEAN_ANOMALY":259.2644,"EPHEMERIS_TYPE":0,"CLASSIFICATION_TYPE":"U","NORAD_CAT_ID":49193,"ELEMENT_SET_NO":999,"REV_AT_EPOCH":19256,"BSTAR":5.7269971e-5,"MEAN_MOTION_DOT":3.5e-7,"MEAN_MOTION_DDOT":0},{"OBJECT_NAME":"ONEWEB-0325","OBJECT_ID":"2021-083J","EPOCH":"2025-09-05T21:44:12.086016","MEAN_MOTION":13.18686543,"ECCENTRICITY":0.00016652,"INCLINATION":87.9179,"RA_OF_ASC_NODE":31.9172,"ARG_OF_PERICENTER":94.2587,"MEAN_ANOMALY":265.8736,"EPHEMERIS_TYPE":0,"CLASSIFICATION_TYPE":"U","NORAD_CAT_ID":49194,"ELEMENT_SET_NO":999,"REV_AT_EPOCH":19254,"BSTAR":-0.00019740042,"MEAN_MOTION_DOT":-6.5e-7,"MEAN_MOTION_DDOT":0},{"OBJECT_NAME":"ONEWEB-0326","OBJECT_ID":"2021-083K","EPOCH":"2025-09-06T07:12:05.012064","MEAN_MOTION":13.18684658,"ECCENTRICITY":0.00020406,"INCLINATION":87.9174,"RA_OF_ASC_NODE":31.8269,"ARG_OF_PERICENTER":92.6163,"MEAN_ANOMALY":267.5203,"EPHEMERIS_TYPE":0,"CLASSIFICATION_TYPE":"U","NORAD_CAT_ID":49195,"ELEMENT_SET_NO":999,"REV_AT_EPOCH":19258,"BSTAR":3.306879e-6,"MEAN_MOTION_DOT":1.4e-7,"MEAN_MOTION_DDOT":0},{"OBJECT_NAME":"ONEWEB-0327","OBJECT_ID":"2021-083L","EPOCH":"2025-09-06T07:11:42.709632","MEAN_MOTION":13.18688922,"ECCENTRICITY":0.00020235,"INCLINATION":87.9171,"RA_OF_ASC_NODE":31.8542,"ARG_OF_PERICENTER":88.9898,"MEAN_ANOMALY":271.1466,"EPHEMERIS_TYPE":0,"CLASSIFICATION_TYPE":"U","NORAD_CAT_ID":49196,"ELEMENT_SET_NO":999,"REV_AT_EPOCH":19260,"BSTAR":0.0001670244,"MEAN_MOTION_DOT":7.9e-7,"MEAN_MOTION_DDOT":0},{"OBJECT_NAME":"ONEWEB-0328","OBJECT_ID":"2021-083M","EPOCH":"2025-09-05T20:24:39.764736","MEAN_MOTION":13.13471635,"ECCENTRICITY":0.00017444,"INCLINATION":87.9024,"RA_OF_ASC_NODE":16.6832,"ARG_OF_PERICENTER":103.1157,"MEAN_ANOMALY":257.0167,"EPHEMERIS_TYPE":0,"CLASSIFICATION_TYPE":"U","NORAD_CAT_ID":49197,"ELEMENT_SET_NO":999,"REV_AT_EPOCH":19357,"BSTAR":-0.00094498286,"MEAN_MOTION_DOT":-3.32e-6,"MEAN_MOTION_DDOT":0},{"OBJECT_NAME":"ONEWEB-0331","OBJECT_ID":"2021-083N","EPOCH":"2025-09-06T03:23:52.492992","MEAN_MOTION":13.18686536,"ECCENTRICITY":0.00020764,"INCLINATION":87.9177,"RA_OF_ASC_NODE":31.8508,"ARG_OF_PERICENTER":99.939,"MEAN_ANOMALY":260.1976,"EPHEMERIS_TYPE":0,"CLASSIFICATION_TYPE":"U","NORAD_CAT_ID":49198,"ELEMENT_SET_NO":999,"REV_AT_EPOCH":19257,"BSTAR":0.00015434226,"MEAN_MOTION_DOT":7.4e-7,"MEAN_MOTION_DDOT":0},{"OBJECT_NAME":"ONEWEB-0333","OBJECT_ID":"2021-083P","EPOCH":"2025-09-06T07:15:31.774176","MEAN_MOTION":13.13470337,"ECCENTRICITY":0.00016833,"INCLINATION":87.9012,"RA_OF_ASC_NODE":16.6609,"ARG_OF_PERICENTER":96.923,"MEAN_ANOMALY":263.209,"EPHEMERIS_TYPE":0,"CLASSIFICATION_TYPE":"U","NORAD_CAT_ID":49199,"ELEMENT_SET_NO":999,"REV_AT_EPOCH":19364,"BSTAR":-0.00056834581,"MEAN_MOTION_DOT":-1.95e-6,"MEAN_MOTION_DDOT":0}]
