ONEWEB-0323             
1 49106U 21075AH  25249.13350503  .00000307  00000+0  81832-3 0  9991
2 49106  87.8888  47.0841 0002372  99.9140 260.2257 13.12442234197297
ONEWEB-0329             
1 49107U 21075AJ  25249.18055814  .00000081  00000+0  17549-3 0  9997
2 49107  87.9029  62.3815 0001912  95.3064 264.8286 13.17651018196187
ONEWEB-0330             
1 49108U 21075AK  25249.18139999  .00000080  00000+0  17405-3 0  9995
2 49108  87.9032  62.3848 0001697  99.3858 260.7465 13.17648813196221
ONEWEB-0292             
1 49186U 21083A   25249.25166303  .00000130  00000+0  32140-3 0  9996
2 49186  87.9021  16.6710 0001911  97.9733 262.1613 13.13471464193657
ONEWEB-0303             
1 49187U 21083B   25249.29827846  .00000052  00000+0  98368-4 0  9995
2 49187  87.9177  31.8280 0001902  95.8103 264.3246 13.18686934192569
ONEWEB-0306             
1 49188U 21083C   25249.13662938  .00000017  00000+0  98399-5 0  9994
2 49188  87.9177  31.8459 0001521  96.3647 263.7659 13.18686958192583
ONEWEB-0307             
1 49189U 21083D   25248.86483271 -.00000092  00000+0 -28584-3 0  9997
2 49189  87.9009  16.7459 0001535 107.0369 253.0928 13.13469041193608
ONEWEB-0320             
1 49190U 21083E   25249.29497207  .00000085  00000+0  18381-3 0  9995
2 49190  87.9177  31.8426 0001742  96.2524 263.8807 13.18684930192560
ONEWEB-0321             
1 49191U 21083F   25249.26447869  .00000152  00000+0  34130-3 0  9997
2 49191  87.9281 331.0310 0001565 100.6727 259.4583 13.20771369199354
ONEWEB-0322             
1 49192U 21083G   25248.86061769 -.00000225  00000+0 -65202-3 0  9991
2 49192  87.9021  16.7425 0001353  98.9430 261.1852 13.13472232193594
ONEWEB-0324             
1 49193U 21083H   25249.13002446  .00000035  00000+0  57270-4 0  9994
2 49193  87.9177  31.8550 0001738 100.8684 259.2644 13.18685046192562
ONEWEB-0325             
1 49194U 21083J   25248.90569544 -.00000065  00000+0 -19740-3 0  9990
2 49194  87.9179  31.9172 0001665  94.2587 265.8736 13.18686543192549
ONEWEB-0326             
1 49195U 21083K   25249.30005801  .00000014  00000+0  33069-5 0  9991
2 49195  87.9174  31.8269 0002040  92.6163 267.5203 13.18684658192588
ONEWEB-0327             
1 49196U 21083L   25249.29979988  .00000079  00000+0  16702-3 0  9990
2 49196  87.9171  31.8542 0002023  88.9898 271.1466 13.18688922192607
ONEWEB-0328             
1 49197U 21083M   25248.85046024 -.00000332  00000+0 -94498-3 0  9990
2 49197  87.9024  16.6832 0001744 103.1157 257.0167 13.13471635193579
ONEWEB-0331             
1 49198U 21083N   25249.14157978  .00000074  00000+0  15434-3 0  9999
2 49198  87.9177  31.8508 0002076  99.9390 260.1976 13.18686536192573
ONEWEB-0333             
1 49199U 21083P   25249.30245109 -.00000195  00000+0 -56835-3 0  9998
2 49199  87.9012  16.6609 0001683  96.9230 263.2090 13.13470337193643
